{
    "links": {
        "self": "http://www.neowsapp.com/rest/v1/neo/54016447?api_key=iIulBulltgU6a56xZRHN4H3l9WmuAYTsLGpBGhQ2"
    },
    "id": "54016447",
    "neo_reference_id": "54016447",
    "name": "(2020 GP)",
    "designation": "2020 GP",
    "nasa_jpl_url": "http://ssd.jpl.nasa.gov/sbdb.cgi?sstr=54016447",
    "absolute_magnitude_h": 24.562,
    "estimated_diameter": {
        "kilometers": {
            "estimated_diameter_min": 0.0325203324,
            "estimated_diameter_max": 0.072717674
        },
        "meters": {
            "estimated_diameter_min": 32.5203324456,
            "estimated_diameter_max": 72.7176739992
        },
        "miles": {
            "estimated_diameter_min": 0.0202071915,
            "estimated_diameter_max": 0.0451846538
        },
        "feet": {
            "estimated_diameter_min": 106.6940075008,
            "estimated_diameter_max": 238.5750535636
        }
    },
    "is_potentially_hazardous_asteroid": false,
    "close_approach_data": [
        {
            "close_approach_date": "2020-03-21",
            "close_approach_date_full": "2020-Mar-21 10:31",
            "epoch_date_close_approach": 1584786660000,
            "relative_velocity": {
                "kilometers_per_second": "10.4884020073",
                "kilometers_per_hour": "37758.2472264186",
                "miles_per_hour": "23461.5064502155"
            },
            "miss_distance": {
                "astronomical": "0.0510535383",
                "lunar": "19.8598263987",
                "kilometers": "7637500.585643421",
                "miles": "4745722.8018283698"
            },
            "orbiting_body": "Earth"
        }
    ],
    "orbital_data": {
        "orbit_id": "5",
        "orbit_determination_date": "2020-04-22 07:45:06",
        "first_observation_date": "2020-04-02",
        "last_observation_date": "2020-04-16",
        "data_arc_in_days": 14,
        "observations_used": 38,
        "orbit_uncertainty": "8",
        "minimum_orbit_intersection": ".0509394",
        "jupiter_tisserand_invariant": "3.905",
        "epoch_osculation": "2458943.5",
        "eccentricity": ".4589862254570843",
        "semi_major_axis": "1.803394667346888",
        "inclination": "12.99944162029057",
        "ascending_node_longitude": "188.5821488532944",
        "orbital_period": "884.5748726091306",
        "perihelion_distance": ".9756613559719057",
        "perihelion_argument": "316.5644559112593",
        "aphelion_distance": "2.63112797872187",
        "perihelion_time": "2458900.070373242652",
        "mean_anomaly": "17.67477928298988",
        "mean_motion": ".4069751596471972",
        "equinox": "J2000",
        "orbit_class": {
            "orbit_class_type": "APO",
            "orbit_class_description": "Near-Earth asteroid orbits which cross the Earth’s orbit similar to that of 1862 Apollo",
            "orbit_class_range": "a (semi-major axis) > 1.0 AU; q (perihelion) < 1.017 AU"
        }
    },
    "is_sentry_object": false
}